GLOBALSTAR M045         
1 25676U 99019A   25274.57673413 -.00000082  00000+0  10439-3 0  9990
2 25676  52.0002   2.0354 0000784 101.8842   3.8965 12.27065387206453
GLOBALSTAR M019         
1 25677U 99019B   25274.82191874 -.00000161  00000+0 -74163-3 0  9998
2 25677  51.9857 139.2070 0001340 135.6104 305.5337 12.13877182198097
GLOBALSTAR M044         
1 25678U 99019C   25274.27033687 -.00000026  00000+0  81069-3 0  9997
2 25678  51.9947 105.3704 0005263 241.0140 289.9107 11.90260614183955
GLOBALSTAR M042         
1 25679U 99019D   25274.86914470 -.00000055  00000+0  34710-3 0  9994
2 25679  51.9992 109.7863 0003404 143.0346 230.6761 12.22088648198309
GLOBALSTAR M025         
1 25770U 99031A   25274.74108382 -.00000044  00000+0  73562-3 0  9990
2 25770  51.9803 272.4332 0002213 327.0715 203.0843 11.22558332493676
GLOBALSTAR M049         
1 25771U 99031B   25274.40918627 -.00000140  00000+0 -25984-2 0  9997
2 25771  51.9892 313.3058 0002772 194.7360 165.3355 11.12121701129242
GLOBALSTAR M047         
1 25772U 99031C   25274.73661193 -.00000037  00000+0  89839-3 0  9991
2 25772  51.9836 299.3531 0016496  85.7051 274.5639 11.31930038483179
GLOBALSTAR M052         
1 25773U 99031D   25274.83672336 -.00000098  00000+0 -10779-2 0  9998
2 25773  51.9874  59.5027 0002432   9.8965 139.3300 11.15061060490403
